QIANFAN-81              
1 63167U 25046J   25326.41783969  .00000108  00000+0  14776-3 0  9991
2 63167  88.9752 321.9774 0014763 172.3731 187.7647 13.50996679 44746
QIANFAN-82              
1 63168U 25046K   25326.45151573  .00000081  00000+0  10743-3 0  9996
2 63168  88.9752 322.0177 0012660 179.1383 180.9792 13.50976557 44736
QIANFAN-83              
1 63169U 25046L   25326.42194184  .00000060  00000+0  61289-4 0  9998
2 63169  88.9752 321.8370 0014383 166.2443 193.9109 13.61969748 44830
QIANFAN-84              
1 63170U 25046M   25326.40541918 -.00000021  00000+0 -51479-4 0  9998
2 63170  88.9749 322.1554 0015706 177.3997 182.7238 13.50985858 44650
QIANFAN-85              
1 63171U 25046N   25326.40203767  .00000107  00000+0  14638-3 0  9994
2 63171  88.9751 322.0274 0013029 178.3910 181.7285 13.50981441 44727
QIANFAN-86              
1 63172U 25046P   25326.41035889  .00000095  00000+0  12810-3 0  9990
2 63172  88.9753 321.8882 0010782 181.0996 179.0133 13.50978215 44806
QIANFAN-87              
1 63173U 25046Q   25326.45570602  .00000024  00000+0  18224-4 0  9990
2 63173  88.9749 321.9960 0011606 176.5799 183.5434 13.50971047 44749
QIANFAN-88              
1 63174U 25046R   25326.39805639  .00000089  00000+0  11975-3 0  9991
2 63174  88.9752 321.9560 0011737 185.1183 174.9850 13.50975857 44769
